[
    {
        "Altitude(m)": 559392.0432503861,
        "Argument of Periapsis(deg)": 0.033114955553567506,
        "Eccentricity": 0.0,
        "Inclination(deg)": 53.0,
        "Latitude(deg)": 50.92960438987135,
        "Longitude(deg)": 98.40250222315606,
        "Mean Anomaly(deg)": 75.91256433788793,
        "RAAN(deg)": 134.95071684264008,
        "Satellite Name": "Starlink Shell 1 595",
        "Satellite Number": 595,
        "Semi-Major Axis(m)": 6931778.249405717,
        "Time(s)": 950
    },
    {
        "Altitude(m)": 559435.2980137478,
        "Argument of Periapsis(deg)": 0.03346353403307874,
        "Eccentricity": 0.0,
        "Inclination(deg)": 53.0,
        "Latitude(deg)": 51.11834363594173,
        "Longitude(deg)": 99.30906140727681,
        "Mean Anomaly(deg)": 76.53939554144465,
        "RAAN(deg)": 134.9501980725626,
        "Satellite Name": "Starlink Shell 1 595",
        "Satellite Number": 595,
        "Semi-Major Axis(m)": 6931778.249405717,
        "Time(s)": 960
    },
    {
        "Altitude(m)": 559476.7630416289,
        "Argument of Periapsis(deg)": 0.03381211251258998,
        "Eccentricity": 0.0,
        "Inclination(deg)": 53.0,
        "Latitude(deg)": 51.2993359930655,
        "Longitude(deg)": 100.22320960889887,
        "Mean Anomaly(deg)": 77.16622674500137,
        "RAAN(deg)": 134.94967930248512,
        "Satellite Name": "Starlink Shell 1 595",
        "Satellite Number": 595,
        "Semi-Major Axis(m)": 6931778.249405717,
        "Time(s)": 970
    },
    {
        "Altitude(m)": 559516.413291925,
        "Argument of Periapsis(deg)": 0.034160690992101214,
        "Eccentricity": 0.0,
        "Inclination(deg)": 53.0,
        "Latitude(deg)": 51.4724708811357,
        "Longitude(deg)": 101.14473123814861,
        "Mean Anomaly(deg)": 77.79305794855807,
        "RAAN(deg)": 134.94916053240766,
        "Satellite Name": "Starlink Shell 1 595",
        "Satellite Number": 595,
        "Semi-Major Axis(m)": 6931778.249405717,
        "Time(s)": 980
    },
    {
        "Altitude(m)": 559554.2248393673,
        "Argument of Periapsis(deg)": 0.034509269471612446,
        "Eccentricity": 0.0,
        "Inclination(deg)": 53.0,
        "Latitude(deg)": 51.63764058593109,
        "Longitude(deg)": 102.07339476211082,
        "Mean Anomaly(deg)": 78.41988915211479,
        "RAAN(deg)": 134.9486417623302,
        "Satellite Name": "Starlink Shell 1 595",
        "Satellite Number": 595,
        "Semi-Major Axis(m)": 6931778.249405717,
        "Time(s)": 990
    }
]